{"type": "FeatureCollection", "features": [ {"type": "Feature", "properties": {"norad_id": 66930, "name": "STARLINK-36206", "group": "last-30-days", "lat": -49.947754161364735, "lon": -116.79862899542734, "alt_km": 360.183707297032, "timestamp": "2025-12-22T18:58:52.140499+00:00", "meta": {"OBJECT_NAME": "STARLINK-36206", "OBJECT_ID": "2025-286F", "EPOCH": "2025-12-22T06:00:02.000160", "MEAN_MOTION": 15.73875067, "ECCENTRICITY": 0.0001039, "INCLINATION": 53.1588, "RA_OF_ASC_NODE": 2.7694, "ARG_OF_PERICENTER": 74.11, "MEAN_ANOMALY": 355.0654, "EPHEMERIS_TYPE": 0, "CLASSIFICATION_TYPE": "U", "NORAD_CAT_ID": 66930, "ELEMENT_SET_NO": 999, "REV_AT_EPOCH": 352, "BSTAR": -0.016235023, "MEAN_MOTION_DOT": -0.02063736, "MEAN_MOTION_DDOT": 0}, "tle": {"line1": "1 66930U 25286F   25356.25002315 -.02063736  00000+0 -16235-1 0  9992", "line2": "2 66930  53.1588   2.7694 0001039  74.1100 355.0654 15.73875067  3527"}}, "geometry": {"type": "Point", "coordinates": [-116.79862899542734, -49.947754161364735]}}, {"type": "Feature", "properties": {"norad_id": 66931, "name": "STARLINK-36130", "group": "last-30-days", "lat": -50.60667067077232, "lon": -113.98966168373282, "alt_km": 360.14872277360246, "timestamp": "2025-12-22T18:58:52.140509+00:00", "meta": {"OBJECT_NAME": "STARLINK-36130", "OBJECT_ID": "2025-286G", "EPOCH": "2025-12-22T06:00:02.000160", "MEAN_MOTION": 15.73831095, "ECCENTRICITY": 9.129e-05, "INCLINATION": 53.1586, "RA_OF_ASC_NODE": 2.7655, "ARG_OF_PERICENTER": 84.0787, "MEAN_ANOMALY": 347.047, "EPHEMERIS_TYPE": 0, "CLASSIFICATION_TYPE": "U", "NORAD_CAT_ID": 66931, "ELEMENT_SET_NO": 999, "REV_AT_EPOCH": 352, "BSTAR": -0.015855402, "MEAN_MOTION_DOT": -0.02017733, "MEAN_MOTION_DDOT": 0}, "tle": {"line1": "1 66931U 25286G   25356.25002315 -.02017733  00000+0 -15855-1 0  9996", "line2": "2 66931  53.1586   2.7655 0000912  84.0787 347.0470 15.73831095  3523"}}, "geometry": {"type": "Point", "coordinates": [-113.98966168373282, -50.60667067077232]}}, {"type": "Feature", "properties": {"norad_id": 66932, "name": "STARLINK-36177", "group": "last-30-days", "lat": -51.1965394581196, "lon": -111.10460019689401, "alt_km": 360.2672345801393, "timestamp": "2025-12-22T18:58:52.140519+00:00", "meta": {"OBJECT_NAME": "STARLINK-36177", "OBJECT_ID": "2025-286H", "EPOCH": "2025-12-22T06:00:02.000160", "MEAN_MOTION": 15.73827353, "ECCENTRICITY": 0.00011251, "INCLINATION": 53.1588, "RA_OF_ASC_NODE": 2.7614, "ARG_OF_PERICENTER": 72.9114, "MEAN_ANOMALY": 0.1373, "EPHEMERIS_TYPE": 0, "CLASSIFICATION_TYPE": "U", "NORAD_CAT_ID": 66932, "ELEMENT_SET_NO": 999, "REV_AT_EPOCH": 352, "BSTAR": -0.015862153, "MEAN_MOTION_DOT": -0.02018374, "MEAN_MOTION_DDOT": 0}, "tle": {"line1": "1 66932U 25286H   25356.25002315 -.02018374  00000+0 -15862-1 0  9997", "line2": "2 66932  53.1588   2.7614 0001125  72.9114   0.1373 15.73827353  3529"}}, "geometry": {"type": "Point", "coordinates": [-111.10460019689401, -51.1965394581196]}}, {"type": "Feature", "properties": {"norad_id": 66933, "name": "STARLINK-36157", "group": "last-30-days", "lat": -51.712260212534616, "lon": -108.15517619178324, "alt_km": 360.23236053707296, "timestamp": "2025-12-22T18:58:52.140529+00:00", "meta": {"OBJECT_NAME": "STARLINK-36157", "OBJECT_ID": "2025-286J", "EPOCH": "2025-12-22T06:00:02.000160", "MEAN_MOTION": 15.73834018, "ECCENTRICITY": 0.00010568, "INCLINATION": 53.1587, "RA_OF_ASC_NODE": 2.7573, "ARG_OF_PERICENTER": 65.1175, "MEAN_ANOMALY": 9.8419, "EPHEMERIS_TYPE": 0, "CLASSIFICATION_TYPE": "U", "NORAD_CAT_ID": 66933, "ELEMENT_SET_NO": 999, "REV_AT_EPOCH": 352, "BSTAR": -0.01590815, "MEAN_MOTION_DOT": -0.0202399, "MEAN_MOTION_DDOT": 0}, "tle": {"line1": "1 66933U 25286J   25356.25002315 -.02023990  00000+0 -15908-1 0  9999", "line2": "2 66933  53.1587   2.7573 0001056  65.1175   9.8419 15.73834018  3520"}}, "geometry": {"type": "Point", "coordinates": [-108.15517619178324, -51.712260212534616]}}, {"type": "Feature", "properties": {"norad_id": 66934, "name": "STARLINK-36153", "group": "last-30-days", "lat": -52.15301301291574, "lon": -105.13969885374046, "alt_km": 360.0109110634876, "timestamp": "2025-12-22T18:58:52.140539+00:00", "meta": {"OBJECT_NAME": "STARLINK-36153", "OBJECT_ID": "2025-286K", "EPOCH": "2025-12-22T06:00:02.000160", "MEAN_MOTION": 15.73812437, "ECCENTRICITY": 7.336e-05, "INCLINATION": 53.1589, "RA_OF_ASC_NODE": 2.7531, "ARG_OF_PERICENTER": 81.2924, "MEAN_ANOMALY": 355.5946, "EPHEMERIS_TYPE": 0, "CLASSIFICATION_TYPE": "U", "NORAD_CAT_ID": 66934, "ELEMENT_SET_NO": 999, "REV_AT_EPOCH": 352, "BSTAR": -0.015676203, "MEAN_MOTION_DOT": -0.01996042, "MEAN_MOTION_DDOT": 0}, "tle": {"line1": "1 66934U 25286K   25356.25002315 -.01996042  00000+0 -15676-1 0  9998", "line2": "2 66934  53.1589   2.7531 0000733  81.2924 355.5946 15.73812437  3526"}}, "geometry": {"type": "Point", "coordinates": [-105.13969885374046, -52.15301301291574]}}, {"type": "Feature", "properties": {"norad_id": 66935, "name": "STARLINK-36127", "group": "last-30-days", "lat": -52.51439310555753, "lon": -102.07205219402802, "alt_km": 360.2748555347598, "timestamp": "2025-12-22T18:58:52.140550+00:00", "meta": {"OBJECT_NAME": "STARLINK-36127", "OBJECT_ID": "2025-286L", "EPOCH": "2025-12-22T06:00:02.000160", "MEAN_MOTION": 15.73830977, "ECCENTRICITY": 0.00010879, "INCLINATION": 53.1586, "RA_OF_ASC_NODE": 2.7492, "ARG_OF_PERICENTER": 64.954, "MEAN_ANOMALY": 13.8419, "EPHEMERIS_TYPE": 0, "CLASSIFICATION_TYPE": "U", "NORAD_CAT_ID": 66935, "ELEMENT_SET_NO": 999, "REV_AT_EPOCH": 352, "BSTAR": -0.015893917, "MEAN_MOTION_DOT": -0.02022185, "MEAN_MOTION_DDOT": 0}, "tle": {"line1": "1 66935U 25286L   25356.25002315 -.02022185  00000+0 -15894-1 0  9990", "line2": "2 66935  53.1586   2.7492 0001087  64.9540  13.8419 15.73830977  3523"}}, "geometry": {"type": "Point", "coordinates": [-102.07205219402802, -52.51439310555753]}}, {"type": "Feature", "properties": {"norad_id": 66936, "name": "STARLINK-36160", "group": "last-30-days", "lat": -52.7961252761001, "lon": -98.9513249079455, "alt_km": 360.280833239759, "timestamp": "2025-12-22T18:58:52.140562+00:00", "meta": {"OBJECT_NAME": "STARLINK-36160", "OBJECT_ID": "2025-286M", "EPOCH": "2025-12-22T06:00:02.000160", "MEAN_MOTION": 15.73825751, "ECCENTRICITY": 0.00010807, "INCLINATION": 53.1588, "RA_OF_ASC_NODE": 2.7454, "ARG_OF_PERICENTER": 73.574, "MEAN_ANOMALY": 7.1439, "EPHEMERIS_TYPE": 0, "CLASSIFICATION_TYPE": "U", "NORAD_CAT_ID": 66936, "ELEMENT_SET_NO": 999, "REV_AT_EPOCH": 352, "BSTAR": -0.015848926, "MEAN_MOTION_DOT": -0.0201673, "MEAN_MOTION_DDOT": 0}, "tle": {"line1": "1 66936U 25286M   25356.25002315 -.02016730  00000+0 -15849-1 0  9990", "line2": "2 66936  53.1588   2.7454 0001080  73.5740   7.1439 15.73825751  3527"}}, "geometry": {"type": "Point", "coordinates": [-98.9513249079455, -52.7961252761001]}}, {"type": "Feature", "properties": {"norad_id": 66937, "name": "STARLINK-36165", "group": "last-30-days", "lat": -52.99407313443278, "lon": -95.80568160189101, "alt_km": 360.18673761888203, "timestamp": "2025-12-22T18:58:52.140590+00:00", "meta": {"OBJECT_NAME": "STARLINK-36165", "OBJECT_ID": "2025-286N", "EPOCH": "2025-12-22T06:00:02.000160", "MEAN_MOTION": 15.73813624, "ECCENTRICITY": 0.00010334, "INCLINATION": 53.1587, "RA_OF_ASC_NODE": 2.7411, "ARG_OF_PERICENTER": 56.1235, "MEAN_ANOMALY": 26.5145, "EPHEMERIS_TYPE": 0, "CLASSIFICATION_TYPE": "U", "NORAD_CAT_ID": 66937, "ELEMENT_SET_NO": 999, "REV_AT_EPOCH": 352, "BSTAR": -0.015708773, "MEAN_MOTION_DOT": -0.02000029, "MEAN_MOTION_DDOT": 0}, "tle": {"line1": "1 66937U 25286N   25356.25002315 -.02000029  00000+0 -15709-1 0  9990", "line2": "2 66937  53.1587   2.7411 0001033  56.1235  26.5145 15.73813624  3529"}}, "geometry": {"type": "Point", "coordinates": [-95.80568160189101, -52.99407313443278]}}, {"type": "Feature", "properties": {"norad_id": 66938, "name": "STARLINK-36155", "group": "last-30-days", "lat": -53.10803741294816, "lon": -92.63651000811544, "alt_km": 359.9954826740859, "timestamp": "2025-12-22T18:58:52.140601+00:00", "meta": {"OBJECT_NAME": "STARLINK-36155", "OBJECT_ID": "2025-286P", "EPOCH": "2025-12-22T06:00:02.000160", "MEAN_MOTION": 15.73807313, "ECCENTRICITY": 8.049e-05, "INCLINATION": 53.1585, "RA_OF_ASC_NODE": 2.7367, "ARG_OF_PERICENTER": 71.4933, "MEAN_ANOMALY": 13.0672, "EPHEMERIS_TYPE": 0, "CLASSIFICATION_TYPE": "U", "NORAD_CAT_ID": 66938, "ELEMENT_SET_NO": 999, "REV_AT_EPOCH": 352, "BSTAR": -0.015662427, "MEAN_MOTION_DOT": -0.01994156, "MEAN_MOTION_DDOT": 0}, "tle": {"line1": "1 66938U 25286P   25356.25002315 -.01994156  00000+0 -15662-1 0  9991", "line2": "2 66938  53.1585   2.7367 0000804  71.4933  13.0672 15.73807313  3522"}}, "geometry": {"type": "Point", "coordinates": [-92.63651000811544, -53.10803741294816]}}, {"type": "Feature", "properties": {"norad_id": 66939, "name": "STARLINK-36154", "group": "last-30-days", "lat": -53.08164468856698, "lon": -86.27480855200945, "alt_km": 360.08464818681387, "timestamp": "2025-12-22T18:58:52.140611+00:00", "meta": {"OBJECT_NAME": "STARLINK-36154", "OBJECT_ID": "2025-286Q", "EPOCH": "2025-12-22T06:00:02.000160", "MEAN_MOTION": 15.73807937, "ECCENTRICITY": 0.0001009, "INCLINATION": 53.1583, "RA_OF_ASC_NODE": 2.7287, "ARG_OF_PERICENTER": 43.7014, "MEAN_ANOMALY": 44.6927, "EPHEMERIS_TYPE": 0, "CLASSIFICATION_TYPE": "U", "NORAD_CAT_ID": 66939, "ELEMENT_SET_NO": 999, "REV_AT_EPOCH": 352, "BSTAR": -0.015685035, "MEAN_MOTION_DOT": -0.01996906, "MEAN_MOTION_DDOT": 0}, "tle": {"line1": "1 66939U 25286Q   25356.25002315 -.01996906  00000+0 -15685-1 0  9992", "line2": "2 66939  53.1583   2.7287 0001009  43.7014  44.6927 15.73807937  3527"}}, "geometry": {"type": "Point", "coordinates": [-86.27480855200945, -53.08164468856698]}}]}